STARLINK-4768           
1 53806U 22111AK  26068.72113445 -.00002318  00000+0 -12766-3 0  9998
2 53806  53.2163 248.8234 0001084  95.6268 264.4848 15.08818156194030
YAM-8                   
1 63254U 25052AW  26068.73092778  .00007810  00000+0  47267-3 0  9993
2 63254  97.7023 329.5345 0002369 152.6796 207.4558 15.10898938 54245
